[{"OBJECT_NAME":"GEOSCAN 1 (RS92S1)","OBJECT_ID":"2025-155E","EPOCH":"2026-03-09T22:44:05.846496","MEAN_MOTION":15.28410635,"ECCENTRICITY":0.00087099,"INCLINATION":97.4463,"RA_OF_ASC_NODE":37.403,"ARG_OF_PERICENTER":153.6429,"MEAN_ANOMALY":206.5255,"EPHEMERIS_TYPE":0,"CLASSIFICATION_TYPE":"U","NORAD_CAT_ID":64880,"ELEMENT_SET_NO":999,"REV_AT_EPOCH":6560,"BSTAR":0.00054367431,"MEAN_MOTION_DOT":0.00014993,"MEAN_MOTION_DDOT":0},{"OBJECT_NAME":"STARLINK-35924","OBJECT_ID":"2025-265A","EPOCH":"2026-03-09T22:22:55.640352","MEAN_MOTION":15.27601307,"ECCENTRICITY":0.00022008,"INCLINATION":43.0005,"RA_OF_ASC_NODE":276.3057,"ARG_OF_PERICENTER":256.5279,"MEAN_ANOMALY":103.5327,"EPHEMERIS_TYPE":0,"CLASSIFICATION_TYPE":"U","NORAD_CAT_ID":66516,"ELEMENT_SET_NO":999,"REV_AT_EPOCH":1715,"BSTAR":0.0015060725,"MEAN_MOTION_DOT":0.00041443,"MEAN_MOTION_DDOT":0}]
